IRIDIUM 171             
1 43929U 19002H   24097.86989720  .00000279  00000+0  92717-4 0  9997
2 43929  86.3984 328.6971 0002122  81.6537 278.4899 14.34218558274102
IRIDIUM 170             
1 43930U 19002J   24097.89393294  .00000946  00000+0  14618-3 0  9991
2 43930  86.6103 328.5192 0002183  92.7239 267.4228 14.72259655281368
IRIDIUM 167             
1 43931U 19002K   24097.93331647  .00000144  00000+0  44228-4 0  9992
2 43931  86.3976 328.4685 0002112  83.6513 276.4924 14.34216057274111
IRIDIUM 181             
1 56726U 23068S   24097.50316683  .00000462  00000+0  13064-3 0  9997
2 56726  86.8692  18.8613 0002325  79.2061 280.9403 14.43560108 46795
IRIDIUM 177             
1 56727U 23068T   24097.97304157  .00001423  00000+0  18374-3 0  9999
2 56727  86.2015 349.1797 0002272  83.6789 276.4691 14.80230439 47847
IRIDIUM 174             
1 56728U 23068U   24097.96764157  .00001412  00000+0  18237-3 0  9995
2 56728  86.2021 349.2802 0002530  88.7140 271.4371 14.80229296 47846
IRIDIUM 178             
1 56729U 23068V   24097.69187333  .00001645  00000+0  21314-3 0  9999
2 56729  86.5836   3.4748 0002560  93.9546 266.1968 14.80223505 47809
IRIDIUM 179             
1 56730U 23068W   24097.48364292  .00001562  00000+0  20216-3 0  9997
2 56730  86.6849   6.7915 0002550  92.4260 267.7253 14.80224172 47775
